[{"OBJECT_NAME":"STARLINK-34848","OBJECT_ID":"2025-191Z","EPOCH":"2026-03-09T15:13:22.082304","MEAN_MOTION":15.05648129,"ECCENTRICITY":0.0003019,"INCLINATION":97.6015,"RA_OF_ASC_NODE":301.5112,"ARG_OF_PERICENTER":78.1384,"MEAN_ANOMALY":282.0182,"EPHEMERIS_TYPE":0,"CLASSIFICATION_TYPE":"U","NORAD_CAT_ID":65402,"ELEMENT_SET_NO":999,"REV_AT_EPOCH":3026,"BSTAR":0.00031739,"MEAN_MOTION_DOT":4.522e-5,"MEAN_MOTION_DDOT":0},{"OBJECT_NAME":"COSMOS 249 DEB","OBJECT_ID":"1968-091AU","EPOCH":"2026-03-09T15:21:56.246976","MEAN_MOTION":14.4883057,"ECCENTRICITY":0.0371981,"INCLINATION":61.9727,"RA_OF_ASC_NODE":173.5146,"ARG_OF_PERICENTER":67.41,"MEAN_ANOMALY":296.587,"EPHEMERIS_TYPE":0,"CLASSIFICATION_TYPE":"U","NORAD_CAT_ID":3757,"ELEMENT_SET_NO":999,"REV_AT_EPOCH":81948,"BSTAR":0.0010972,"MEAN_MOTION_DOT":0.00010007,"MEAN_MOTION_DDOT":0}]
